FENGYUN 1C DEB          
1 31183U 99025BJM 17344.97348723  .00000613  00000-0  24317-3 0  9993
2 31183  99.0736 151.8019 0065149  33.3052 118.9452 14.31468394555624
